STARLINK-4318           
1 53086U 22077AV  22209.58334491 -.01394342  00000+0 -21101-1 0  9995
2 53086  97.6552  28.7213 0001857  75.6260 145.1311 15.57504865  1304
STARLINK-4329           
1 53087U 22077AW  22209.58334491 -.01394554  00000+0 -21085-1 0  9992
2 53087  97.6552  28.7200 0001837  79.5129 143.4105 15.57529740  1307
STARLINK-4333           
1 53088U 22077AX  22209.58334491 -.01394522  00000+0 -21091-1 0  9995
2 53088  97.6552  28.7203 0001838  79.2827 142.9187 15.57521481  1302
FALCON 9 DEB            
1 53089U 22077AY  22209.43829143  .00125996  81049-5  41109-3 0  9999
2 53089  97.6741  29.0562 0008808 201.1175 158.9735 15.90642775  2765
FALCON 9 DEB            
1 53090U 22077AZ  22209.43296055  .00137428  92454-5  43404-3 0  9996
2 53090  97.6729  29.0601 0006607 191.1962 168.9165 15.91302610  2764
FALCON 9 DEB            
1 53091U 22077BA  22209.41958282  .00160664  11952-4  46719-3 0  9995
2 53091  97.6679  29.0689 0010487 181.3427 178.7821 15.92829183  2761
FALCON 9 DEB            
1 53092U 22077BB  22209.41646328  .00157845  11640-4  45395-3 0  9991
2 53092  97.6670  29.0716 0010579 166.1190 194.0377 15.93040863  2762
TIANLIAN 2-03           
1 53100U 22078A   22209.39632966  .00000076  00000+0  00000+0 0  9998
2 53100   2.9880 284.8532 0002394 191.5338 342.9539  1.00271441   317
CZ-3B R/B               
1 53101U 22078B   22209.47734221  .00042108  67271-6  12184-2 0  9996
2 53101  27.1512 169.6051 7236184 183.8630 162.7308  2.38125497   387
LARES-2                 
1 53105U 22080A   22209.55435029 -.00000002  00000+0  00000+0 0  9995
2 53105  70.1524  72.2130 0005650 281.4961  78.5291  6.38965238   964
MTCUBE 2 (ROBUSTA 1F)   
1 53106U 22080B   22209.15977029 -.00000003  00000+0  00000+0 0  9994
2 53106  70.1718  72.3102 0008015 228.5203 131.5821  6.42554367   937
ASTROBIOCUBESAT         
1 53107U 22080C   22209.63699059 -.00000003  00000+0  00000+0 0  9992
2 53107  70.1589  72.1587 0012364 249.1690 110.7627  6.42111033   875
TRISAT-R                
1 53108U 22080D   22209.63600664 -.00000003  00000+0  00000+0 0  9997
2 53108  70.1663  72.1560 0012538 259.4636 100.4616  6.42152573   875
GREENCUBE               
1 53109U 22080E   22209.62594319 -.00000003  00000+0  00000+0 0  9996
2 53109  70.1371  71.9477 0008886 240.0508 119.9275  6.42583606   850
2022-080F               
1 53110U 22080F   22207.29365325 -.00000003  00000+0  00000+0 0  9992
2 53110  70.1572  72.9657 0089790  89.4547 271.6397  6.42507134   704
CELESTA                 
1 53111U 22080G   22209.16019017 -.00000003  00000+0  00000+0 0  9995
2 53111  70.1517  72.3224 0015664 220.2144 139.7964  6.42532870   816
2022-080H               
1 53112U 22080H   22207.29133216 -.00000003  00000+0  00000+0 0  9996
2 53112  70.1386  72.9501 0009345 259.2772 100.6820  6.42593043   708
DRAGON CRS-25           
1 53113U 22081A   22209.54422316  .00005213  00000+0  98742-4 0  9992
2 53113  51.6439 131.7347 0005154  58.2040 113.7462 15.50152435351591
SUPERVIEW NEO-2 O1      
1 53128U 22082A   22209.56460807  .00003004  00000+0  12449-3 0  9993
2 53128  97.3840 217.3824 0012005 216.3260 300.2189 15.24607892  1926
CZ-2C DEB               
1 53129U 22082B   22209.26880933  .00013507  00000+0  53660-3 0  9996
2 53129  97.3838 217.1014 0012126 224.6312 135.3930 15.25371259  1889
SUPERVIEW NEO-2 02      
1 53130U 22082C   22209.55064851  .00003098  00000+0  12530-3 0  9998
2 53130  97.3838 217.3839 0012073 233.0727 243.1559 15.25410290  1922
CZ-2C R/B               
1 53131U 22082D   22209.18340877  .00006351  00000+0  17718-3 0  9991
2 53131  97.3588 217.1189 0048372 330.1868  29.6613 15.35919298  1883
STARLINK-4063           
1 53132U 22083A   22209.58334491 -.00096502  00000+0 -68971-3 0  9998
2 53132  53.2172 352.4380 0001383  56.1200  50.6186 15.73245581  1301
STARLINK-4154           
1 53133U 22083B   22209.58334491  .00001295  00000+0  13634-4 0  9999
2 53133  53.2173 352.4468 0003516 279.1610 183.7653 15.73258375  1304
STARLINK-4150           
1 53134U 22083C   22209.58334491  .00001284  00000+0  13559-4 0  9994
2 53134  53.2177 352.4427 0001287  56.3658  48.5735 15.73204062  1307
STARLINK-4023           
1 53135U 22083D   22209.58334491  .00002053  00000+0  19031-4 0  9991
2 53135  53.2172 352.4443 0001180  55.2855  48.4391 15.73209015  1300
STARLINK-4152           
1 53136U 22083E   22209.58334491 -.00078906  00000+0 -56071-3 0  9998
2 53136  53.2174 352.4439 0001586  63.6920  40.5054 15.73296765  1301
STARLINK-4145           
1 53137U 22083F   22209.58334491  .00001367  00000+0  14159-4 0  9996
2 53137  53.2180 352.4436 0003912 278.6293 186.6115 15.73244140  1302
STARLINK-4141           
1 53138U 22083G   22209.58334491 -.01203587  00000+0 -74801-2 0  9996
2 53138  53.2176 351.9928 0004393 325.4324   4.4005 15.78957666  1302
STARLINK-4185           
1 53139U 22083H   22209.58334491 -.00118170  00000+0 -84755-3 0  9999
2 53139  53.2182 352.4386 0001370  49.6330  58.2680 15.73251159  1303
STARLINK-4170           
1 53140U 22083J   22209.58334491  .00002330  00000+0  20987-4 0  9997
2 53140  53.2175 352.4381 0000865  45.6103  61.4443 15.73224353  1303
STARLINK-4103           
1 53141U 22083K   22209.58334491 -.00093180  00000+0 -66660-3 0  9990
2 53141  53.2174 352.4323 0001258  52.6227  57.6726 15.73209432  1303
STARLINK-4101           
1 53142U 22083L   22209.58334491  .00005475  00000+0  43321-4 0  9999
2 53142  53.2176 352.4368 0004234 277.4072 190.8107 15.73251521  1306
STARLINK-4102           
1 53143U 22083M   22209.58334491  .00006701  00000+0  52024-4 0  9993
2 53143  53.2178 352.4321 0001263  53.4800  57.1366 15.73245348  1300
STARLINK-4100           
1 53144U 22083N   22209.58334491 -.00105177  00000+0 -75159-3 0  9996
2 53144  53.2181 352.4364 0001645 293.2433 175.6776 15.73284753  1306
STARLINK-4106           
1 53145U 22083P   22209.58334491  .00008001  00000+0  61224-4 0  9992
2 53145  53.2181 352.4304 0001114  50.0249  61.8332 15.73256130  1308
STARLINK-4099           
1 53146U 22083Q   22209.58334491 -.00102150  00000+0 -72949-3 0  9990
2 53146  53.2179 352.4347 0002868 281.1533 188.3451 15.73281859  1306
STARLINK-4094           
1 53147U 22083R   22209.58334491 -.00133739  00000+0 -96098-3 0  9999
2 53147  53.2176 352.4275 0001186  58.9942  53.7033 15.73266084  1304
STARLINK-4066           
1 53148U 22083S   22209.58334491 -.00147698  00000+0 -10629-2 0  9994
2 53148  53.2177 352.4300 0001286  59.6426  51.8221 15.73278849  1301
STARLINK-4021           
1 53149U 22083T   22209.58334491 -.00132025  00000+0 -94720-3 0  9998
2 53149  53.2173 352.4113 0001237  50.4647  69.9363 15.73295678  1306
STARLINK-4038           
1 53150U 22083U   22209.58334491 -.00106753  00000+0 -76376-3 0  9996
2 53150  53.2173 352.4255 0001175  53.8135  59.4585 15.73265082  1301
STARLINK-4040           
1 53151U 22083V   22209.58334491 -.00147315  00000+0 -10601-2 0  9994
2 53151  53.2183 352.4250 0001280  61.4781  53.5666 15.73278508  1309
STARLINK-4045           
1 53152U 22083W   22209.58334491 -.00104893  00000+0 -75025-3 0  9991
2 53152  53.2182 352.4274 0001496  54.0133  59.8562 15.73262856  1306
STARLINK-4098           
1 53153U 22083X   22209.58334491 -.00083652  00000+0 -59632-3 0  9997
2 53153  53.2179 352.4228 0001247  54.9594  60.6904 15.73248074  1302
STARLINK-4077           
1 53154U 22083Y   22209.58334491 -.00147593  00000+0 -10632-2 0  9999
2 53154  53.2167 352.4220 0001172  60.5983  53.8548 15.73255766  1308
STARLINK-4088           
1 53155U 22083Z   22209.58334491 -.00088686  00000+0 -63201-3 0  9998
2 53155  53.2177 352.4184 0003942 278.0794 199.3156 15.73265352  1305
STARLINK-4087           
1 53156U 22083AA  22209.58334491  .00005133  00000+0  40893-4 0  9996
2 53156  53.2178 352.4203 0001038  38.1684  78.4033 15.73243306  1302
STARLINK-4093           
1 53157U 22083AB  22209.58334491 -.00095941  00000+0 -68503-3 0  9992
2 53157  53.2179 352.4166 0001106  46.0421  72.5764 15.73266880  1303
STARLINK-4054           
1 53158U 22083AC  22209.58334491 -.00061126  00000+0 -43343-3 0  9996
2 53158  53.2174 352.4201 0001083  50.1465  66.0853 15.73245836  1302
STARLINK-4111           
1 53159U 22083AD  22209.58334491  .00002992  00000+0  25719-4 0  9999
2 53159  53.2184 352.4159 0003468 277.7140 201.8474 15.73227402  1309
STARLINK-4096           
1 53160U 22083AE  22209.58334491 -.00100113  00000+0 -71636-3 0  9995
2 53160  53.2184 352.4189 0001242  51.1941  66.8306 15.73234210  1303
STARLINK-4055           
1 53161U 22083AF  22209.58334491  .00005128  00000+0  40873-4 0  9994
2 53161  53.2176 352.4099 0001035  34.6841  86.6414 15.73232746  1302
STARLINK-4114           
1 53162U 22083AG  22209.58334491  .00003983  00000+0  32731-4 0  9996
2 53162  53.2181 352.4159 0001254  46.1864  72.7731 15.73237869  1301
STARLINK-4104           
1 53163U 22083AH  22209.58334491 -.00088130  00000+0 -62830-3 0  9998
2 53163  53.2178 352.4078 0001116  59.7992  62.9911 15.73267276  1303
STARLINK-4116           
1 53164U 22083AJ  22209.58334491  .00003891  00000+0  32125-4 0  9993
2 53164  53.2173 352.4102 0001606  64.8281  55.9037 15.73204221  1301
STARLINK-4090           
1 53165U 22083AK  22209.58334491  .00004209  00000+0  34380-4 0  9993
2 53165  53.2174 352.4046 0001032  53.7871  69.9269 15.73205722  1304
STARLINK-4110           
1 53166U 22083AL  22209.58334491 -.00126493  00000+0 -90650-3 0  9997
2 53166  53.2176 352.4082 0001419  59.1784  63.0089 15.73300995  1302
STARLINK-3683           
1 53167U 22083AM  22209.58334491  .00004592  00000+0  37072-4 0  9991
2 53167  53.2171 352.3988 0001322  52.4599  74.2299 15.73231751  1305
STARLINK-4105           
1 53168U 22083AN  22209.58334491  .00004557  00000+0  36787-4 0  9995
2 53168  53.2179 352.4072 0001202  59.7788  63.3609 15.73252458  1307
